[
    {
        "OBJECT_NAME": "QZS-2 (MICHIBIKI-2)",
        "OBJECT_ID": "2017-028A",
        "EPOCH": "2025-03-10T08:30:32.533344",
        "MEAN_MOTION": 1.00261787,
        "ECCENTRICITY": 0.0744901,
        "INCLINATION": 40.1504,
        "RA_OF_ASC_NODE": 249.9082,
        "ARG_OF_PERICENTER": 270.3362,
        "MEAN_ANOMALY": 276.6901,
        "EPHEMERIS_TYPE": 0,
        "CLASSIFICATION_TYPE": "U",
        "NORAD_CAT_ID": 42738,
        "ELEMENT_SET_NO": 999,
        "REV_AT_EPOCH": 297,
        "BSTAR": 0,
        "MEAN_MOTION_DOT": -1.76e-06,
        "MEAN_MOTION_DDOT": 0
    },
    {
        "OBJECT_NAME": "QZS-4 (MICHIBIKI-4)",
        "OBJECT_ID": "2017-062A",
        "EPOCH": "2025-03-08T19:02:03.508224",
        "MEAN_MOTION": 1.00280073,
        "ECCENTRICITY": 0.0748986,
        "INCLINATION": 40.3812,
        "RA_OF_ASC_NODE": 349.4219,
        "ARG_OF_PERICENTER": 269.7746,
        "MEAN_ANOMALY": 332.9509,
        "EPHEMERIS_TYPE": 0,
        "CLASSIFICATION_TYPE": "U",
        "NORAD_CAT_ID": 42965,
        "ELEMENT_SET_NO": 999,
        "REV_AT_EPOCH": 2714,
        "BSTAR": 0,
        "MEAN_MOTION_DOT": -3.43e-06,
        "MEAN_MOTION_DDOT": 0
    },
    {
        "OBJECT_NAME": "QZS-1R (MICHIBIKI-1R)",
        "OBJECT_ID": "2021-096A",
        "EPOCH": "2025-03-08T22:30:51.569568",
        "MEAN_MOTION": 1.00287796,
        "ECCENTRICITY": 0.0749506,
        "INCLINATION": 36.4934,
        "RA_OF_ASC_NODE": 86.5169,
        "ARG_OF_PERICENTER": 269.6291,
        "MEAN_ANOMALY": 283.9999,
        "EPHEMERIS_TYPE": 0,
        "CLASSIFICATION_TYPE": "U",
        "NORAD_CAT_ID": 49336,
        "ELEMENT_SET_NO": 999,
        "REV_AT_EPOCH": 1233,
        "BSTAR": 0,
        "MEAN_MOTION_DOT": -2.61e-06,
        "MEAN_MOTION_DDOT": 0
    },
    {
        "OBJECT_NAME": "QZS-6 (MICHIBIKI-6)",
        "OBJECT_ID": "2025-023A",
        "EPOCH": "2025-03-10T19:56:38.634144",
        "MEAN_MOTION": 1.00270909,
        "ECCENTRICITY": 0.0001597,
        "INCLINATION": 0.0573,
        "RA_OF_ASC_NODE": 349.2694,
        "ARG_OF_PERICENTER": 349.3874,
        "MEAN_ANOMALY": 219.7611,
        "EPHEMERIS_TYPE": 0,
        "CLASSIFICATION_TYPE": "U",
        "NORAD_CAT_ID": 62876,
        "ELEMENT_SET_NO": 999,
        "REV_AT_EPOCH": 31,
        "BSTAR": 0,
        "MEAN_MOTION_DOT": -2.51e-06,
        "MEAN_MOTION_DDOT": 0
    }
]