QZS-2 (MICHIBIKI-2)     
1 42738U 17028A   25069.35454321 -.00000176  00000+0  00000+0 0  9994
2 42738  40.1504 249.9082 0744901 270.3362 276.6901  1.00261787  2973
QZS-4 (MICHIBIKI-4)     
1 42965U 17062A   25067.79309616 -.00000343  00000+0  00000+0 0  9992
2 42965  40.3812 349.4219 0748986 269.7746 332.9509  1.00280073 27147
QZS-1R (MICHIBIKI-1R)   
1 49336U 21096A   25067.93809687 -.00000261  00000+0  00000+0 0  9991
2 49336  36.4934  86.5169 0749506 269.6291 283.9999  1.00287796 12335
QZS-6 (MICHIBIKI-6)     
1 62876U 25023A   25069.83100271 -.00000251  00000+0  00000+0 0  9992
2 62876   0.0573 349.2694 0001597 349.3874 219.7611  1.00270909   312
